{
  "type": "FeatureCollection",
  "features": [
    {
      "type": "Feature",
      "properties": {
        "norad_id": 30750,
        "name": "FENGYUN 1C DEB",
        "group": "fengyun-1c-debris",
        "lat": 42.498304005730716,
        "lon": 61.05827939205244,
        "alt_km": 768.9250542532382,
        "timestamp": "2025-12-20T14:38:02.248333+00:00",
        "meta_object_name": "FENGYUN 1C DEB",
        "meta_object_id": "1999-025ATL",
        "meta_epoch": "2025-12-20T04:28:30.209664",
        "meta_mean_motion": 14.28662866,
        "meta_eccentricity": 0.00398968,
        "meta_inclination": 98.9195,
        "meta_ra_of_asc_node": 68.8991,
        "meta_arg_of_pericenter": 78.5669,
        "meta_mean_anomaly": 309.095,
        "meta_ephemeris_type": 0,
        "meta_classification_type": "U",
        "meta_norad_cat_id": 30750,
        "meta_element_set_no": 999,
        "meta_rev_at_epoch": 96888,
        "meta_bstar": 0.0011325578,
        "meta_mean_motion_dot": 2.825e-05,
        "meta_mean_motion_ddot": 0,
        "tle_line1": "1 30750U 99025ATL 25354.18646076  .00002825  00000+0  11326-2 0  9998",
        "tle_line2": "2 30750  98.9195  68.8991 0039896  78.5669 309.0950 14.28662866968889"
      },
      "geometry": {
        "type": "Point",
        "coordinates": [
          61.05827939205244,
          42.498304005730716
        ]
      }
    },
    {
      "type": "Feature",
      "properties": {
        "norad_id": 30751,
        "name": "FENGYUN 1C DEB",
        "group": "fengyun-1c-debris",
        "lat": 61.743764047083204,
        "lon": -109.38455305335249,
        "alt_km": 807.868124446306,
        "timestamp": "2025-12-20T14:38:02.248343+00:00",
        "meta_object_name": "FENGYUN 1C DEB",
        "meta_object_id": "1999-025ATM",
        "meta_epoch": "2025-12-19T02:35:44.656800",
        "meta_mean_motion": 14.15234958,
        "meta_eccentricity": 0.00517681,
        "meta_inclination": 98.8548,
        "meta_ra_of_asc_node": 52.2645,
        "meta_arg_of_pericenter": 78.491,
        "meta_mean_anomaly": 311.8722,
        "meta_ephemeris_type": 0,
        "meta_classification_type": "U",
        "meta_norad_cat_id": 30751,
        "meta_element_set_no": 999,
        "meta_rev_at_epoch": 96366,
        "meta_bstar": 0.0011823514,
        "meta_mean_motion_dot": 2.285e-05,
        "meta_mean_motion_ddot": 0,
        "tle_line1": "1 30751U 99025ATM 25353.10815575  .00002285  00000+0  11824-2 0  9995",
        "tle_line2": "2 30751  98.8548  52.2645 0051768  78.4910 311.8722 14.15234958963666"
      },
      "geometry": {
        "type": "Point",
        "coordinates": [
          -109.38455305335249,
          61.743764047083204
        ]
      }
    },
    {
      "type": "Feature",
      "properties": {
        "norad_id": 30753,
        "name": "FENGYUN 1C DEB",
        "group": "fengyun-1c-debris",
        "lat": -24.361741000084617,
        "lon": -150.95620835553822,
        "alt_km": 880.0346867611279,
        "timestamp": "2025-12-20T14:38:02.248353+00:00",
        "meta_object_name": "FENGYUN 1C DEB",
        "meta_object_id": "1999-025ATP",
        "meta_epoch": "2025-12-20T01:45:57.463200",
        "meta_mean_motion": 14.12674206,
        "meta_eccentricity": 0.00551948,
        "meta_inclination": 98.8065,
        "meta_ra_of_asc_node": 32.542,
        "meta_arg_of_pericenter": 333.9101,
        "meta_mean_anomaly": 25.9291,
        "meta_ephemeris_type": 0,
        "meta_classification_type": "U",
        "meta_norad_cat_id": 30753,
        "meta_element_set_no": 999,
        "meta_rev_at_epoch": 96455,
        "meta_bstar": 0.00081055436,
        "meta_mean_motion_dot": 1.48e-05,
        "meta_mean_motion_ddot": 0,
        "tle_line1": "1 30753U 99025ATP 25354.07358175  .00001480  00000+0  81055-3 0  9992",
        "tle_line2": "2 30753  98.8065  32.5420 0055194 333.9101  25.9291 14.12674206964556"
      },
      "geometry": {
        "type": "Point",
        "coordinates": [
          -150.95620835553822,
          -24.361741000084617
        ]
      }
    },
    {
      "type": "Feature",
      "properties": {
        "norad_id": 30755,
        "name": "FENGYUN 1C DEB",
        "group": "fengyun-1c-debris",
        "lat": 21.172805966094977,
        "lon": 172.18365363917962,
        "alt_km": 733.7881094394397,
        "timestamp": "2025-12-20T14:38:02.248363+00:00",
        "meta_object_name": "FENGYUN 1C DEB",
        "meta_object_id": "1999-025ATR",
        "meta_epoch": "2025-12-19T23:03:47.003616",
        "meta_mean_motion": 14.44983801,
        "meta_eccentricity": 0.01508302,
        "meta_inclination": 98.2582,
        "meta_ra_of_asc_node": 348.3279,
        "meta_arg_of_pericenter": 246.9728,
        "meta_mean_anomaly": 140.2536,
        "meta_ephemeris_type": 0,
        "meta_classification_type": "U",
        "meta_norad_cat_id": 30755,
        "meta_element_set_no": 999,
        "meta_rev_at_epoch": 98549,
        "meta_bstar": 0.00036855233,
        "meta_mean_motion_dot": 1.428e-05,
        "meta_mean_motion_ddot": 0,
        "tle_line1": "1 30755U 99025ATR 25353.96096069  .00001428  00000+0  36855-3 0  9992",
        "tle_line2": "2 30755  98.2582 348.3279 0150830 246.9728 140.2536 14.44983801985495"
      },
      "geometry": {
        "type": "Point",
        "coordinates": [
          172.18365363917962,
          21.172805966094977
        ]
      }
    },
    {
      "type": "Feature",
      "properties": {
        "norad_id": 30756,
        "name": "FENGYUN 1C DEB",
        "group": "fengyun-1c-debris",
        "lat": 77.6966834015962,
        "lon": -71.33398278643341,
        "alt_km": 873.495238159675,
        "timestamp": "2025-12-20T14:38:02.248387+00:00",
        "meta_object_name": "FENGYUN 1C DEB",
        "meta_object_id": "1999-025ATS",
        "meta_epoch": "2025-12-19T04:36:36.409248",
        "meta_mean_motion": 14.18312364,
        "meta_eccentricity": 0.0071502,
        "meta_inclination": 98.991,
        "meta_ra_of_asc_node": 60.6832,
        "meta_arg_of_pericenter": 297.4614,
        "meta_mean_anomaly": 126.2927,
        "meta_ephemeris_type": 0,
        "meta_classification_type": "U",
        "meta_norad_cat_id": 30756,
        "meta_element_set_no": 999,
        "meta_rev_at_epoch": 96496,
        "meta_bstar": 0.0011061,
        "meta_mean_motion_dot": 2.291e-05,
        "meta_mean_motion_ddot": 0,
        "tle_line1": "1 30756U 99025ATS 25353.19208807  .00002291  00000+0  11061-2 0  9993",
        "tle_line2": "2 30756  98.9910  60.6832 0071502 297.4614 126.2927 14.18312364964968"
      },
      "geometry": {
        "type": "Point",
        "coordinates": [
          -71.33398278643341,
          77.6966834015962
        ]
      }
    },
    {
      "type": "Feature",
      "properties": {
        "norad_id": 30758,
        "name": "FENGYUN 1C DEB",
        "group": "fengyun-1c-debris",
        "lat": 77.6802676791897,
        "lon": -19.933006970699843,
        "alt_km": 840.6471079637422,
        "timestamp": "2025-12-20T14:38:02.248399+00:00",
        "meta_object_name": "FENGYUN 1C DEB",
        "meta_object_id": "1999-025ATU",
        "meta_epoch": "2025-12-18T01:25:53.327136",
        "meta_mean_motion": 14.17131159,
        "meta_eccentricity": 0.00384032,
        "meta_inclination": 99.0185,
        "meta_ra_of_asc_node": 110.8298,
        "meta_arg_of_pericenter": 347.6484,
        "meta_mean_anomaly": 67.7822,
        "meta_ephemeris_type": 0,
        "meta_classification_type": "U",
        "meta_norad_cat_id": 30758,
        "meta_element_set_no": 999,
        "meta_rev_at_epoch": 96566,
        "meta_bstar": 0.0008333481,
        "meta_mean_motion_dot": 1.645e-05,
        "meta_mean_motion_ddot": 0,
        "tle_line1": "1 30758U 99025ATU 25352.05964499  .00001645  00000+0  83335-3 0  9991",
        "tle_line2": "2 30758  99.0185 110.8298 0038403 347.6484  67.7822 14.17131159965667"
      },
      "geometry": {
        "type": "Point",
        "coordinates": [
          -19.933006970699843,
          77.6802676791897
        ]
      }
    },
    {
      "type": "Feature",
      "properties": {
        "norad_id": 30759,
        "name": "FENGYUN 1C DEB",
        "group": "fengyun-1c-debris",
        "lat": 42.18154370880885,
        "lon": -68.2979861716679,
        "alt_km": 700.878759117556,
        "timestamp": "2025-12-20T14:38:02.248433+00:00",
        "meta_object_name": "FENGYUN 1C DEB",
        "meta_object_id": "1999-025ATV",
        "meta_epoch": "2025-12-20T06:01:20.542080",
        "meta_mean_motion": 14.54649602,
        "meta_eccentricity": 0.00087624,
        "meta_inclination": 99.2584,
        "meta_ra_of_asc_node": 102.8051,
        "meta_arg_of_pericenter": 147.4313,
        "meta_mean_anomaly": 271.6783,
        "meta_ephemeris_type": 0,
        "meta_classification_type": "U",
        "meta_norad_cat_id": 30759,
        "meta_element_set_no": 999,
        "meta_rev_at_epoch": 97764,
        "meta_bstar": 0.0015583542,
        "meta_mean_motion_dot": 6.615e-05,
        "meta_mean_motion_ddot": 0,
        "tle_line1": "1 30759U 99025ATV 25354.25093220  .00006615  00000+0  15584-2 0  9993",
        "tle_line2": "2 30759  99.2584 102.8051 0008762 147.4313 271.6783 14.54649602977644"
      },
      "geometry": {
        "type": "Point",
        "coordinates": [
          -68.2979861716679,
          42.18154370880885
        ]
      }
    }
  ]
}